[{"OBJECT_NAME":"OBJECT Y","OBJECT_ID":"2023-085Y","EPOCH":"2026-03-09T22:38:54.992256","MEAN_MOTION":15.32500153,"ECCENTRICITY":0.00063298,"INCLINATION":97.4849,"RA_OF_ASC_NODE":180.8653,"ARG_OF_PERICENTER":67.4431,"MEAN_ANOMALY":292.748,"EPHEMERIS_TYPE":0,"CLASSIFICATION_TYPE":"U","NORAD_CAT_ID":57026,"ELEMENT_SET_NO":999,"REV_AT_EPOCH":15160,"BSTAR":0.00065512761,"MEAN_MOTION_DOT":0.00020524,"MEAN_MOTION_DDOT":0},{"OBJECT_NAME":"STARLINK-34104","OBJECT_ID":"2025-110G","EPOCH":"2026-03-09T21:41:43.931616","MEAN_MOTION":15.30208132,"ECCENTRICITY":0.00012254,"INCLINATION":53.1585,"RA_OF_ASC_NODE":25.8867,"ARG_OF_PERICENTER":101.3794,"MEAN_ANOMALY":258.7345,"EPHEMERIS_TYPE":0,"CLASSIFICATION_TYPE":"U","NORAD_CAT_ID":64102,"ELEMENT_SET_NO":999,"REV_AT_EPOCH":4591,"BSTAR":0.00076416857,"MEAN_MOTION_DOT":0.00022347,"MEAN_MOTION_DDOT":0}]
